STARLINK-30494          
1 57970U 23151G   26068.36049035 -.00001272  00000+0 -35691-4 0  9993
2 57970  43.0027 192.4566 0001155 241.5536 118.5200 15.28417441137406
STARLINK-35619          
1 66256U 25245Y   26068.90044425  .00018688  00000+0  64158-3 0  9990
2 66256  53.1568 282.5662 0001052  88.2950 271.8171 15.30196026 21290
