[{"OBJECT_NAME":"STARLINK-30494","OBJECT_ID":"2023-151G","EPOCH":"2026-03-09T08:39:06.366240","MEAN_MOTION":15.28417441,"ECCENTRICITY":0.00011553,"INCLINATION":43.0027,"RA_OF_ASC_NODE":192.4566,"ARG_OF_PERICENTER":241.5536,"MEAN_ANOMALY":118.52,"EPHEMERIS_TYPE":0,"CLASSIFICATION_TYPE":"U","NORAD_CAT_ID":57970,"ELEMENT_SET_NO":999,"REV_AT_EPOCH":13740,"BSTAR":-3.569111e-5,"MEAN_MOTION_DOT":-1.272e-5,"MEAN_MOTION_DDOT":0},{"OBJECT_NAME":"STARLINK-35619","OBJECT_ID":"2025-245Y","EPOCH":"2026-03-09T21:36:38.383200","MEAN_MOTION":15.30196026,"ECCENTRICITY":0.00010516,"INCLINATION":53.1568,"RA_OF_ASC_NODE":282.5662,"ARG_OF_PERICENTER":88.295,"MEAN_ANOMALY":271.8171,"EPHEMERIS_TYPE":0,"CLASSIFICATION_TYPE":"U","NORAD_CAT_ID":66256,"ELEMENT_SET_NO":999,"REV_AT_EPOCH":2129,"BSTAR":0.00064158049,"MEAN_MOTION_DOT":0.00018688,"MEAN_MOTION_DDOT":0}]
